NORAD_CAT_ID,OBJECT_NAME,OBJECT_TYPE,EPOCH,MEAN_MOTION,ECCENTRICITY,INCLINATION,RA_OF_ASC_NODE,ARG_OF_PERICENTER,MEAN_ANOMALY,BSTAR,MEAN_MOTION_DOT,MEAN_MOTION_DDOT,TLE_LINE0,TLE_LINE1,TLE_LINE2,SEMIMAJOR_AXIS,PERIOD,APOGEE,PERIGEE,DECAYED
51127.0,STARLINK-3370,PAYLOAD,2023-05-16 05:52:22,15.08740012,0.0001683,53.217,236.0013,88.3348,271.7837,0.0012602,0.0001977,0.0,0 STARLINK-3370,1 51127U 22005Z   23136.24470098  .00019770  00000-0  12602-2 0  9991,2 51127  53.2170 236.0013 0001683  88.3348 271.7837 15.08740012 74591,6918.186,95.444,541.215,538.887,0.0
51127.0,STARLINK-3370,PAYLOAD,2023-05-16 12:13:55,15.08761832,0.0001534,53.217,234.8111,87.4274,272.6894,0.00097091,0.00015165,0.0,0 STARLINK-3370,1 51127U 22005Z   23136.50967156  .00015165  00000-0  97091-3 0  9996,2 51127  53.2170 234.8111 0001534  87.4274 272.6894 15.08761832 74630,6918.119,95.442,541.046,538.923,0.0
51127.0,STARLINK-3370,PAYLOAD,2023-05-17 10:29:18,15.08830589,0.0001184,53.2177,230.6477,101.6266,258.4859,0.00012693,1.732e-05,0.0,0 STARLINK-3370,1 51127U 22005Z   23137.43702036  .00001732  00000-0  12693-3 0  9993,2 51127  53.2177 230.6477 0001184 101.6266 258.4859 15.08830589 74771,6917.909,95.438,540.593,538.955,0.0
51127.0,STARLINK-3370,PAYLOAD,2023-05-17 13:40:04,15.08838997,0.0001201,53.2175,230.0528,96.7589,263.354,5.7816e-05,6.32e-06,0.0,0 STARLINK-3370,1 51127U 22005Z   23137.56949704  .00000632  00000-0  57816-4 0  9997,2 51127  53.2175 230.0528 0001201  96.7589 263.3540 15.08838997 73673,6917.883,95.438,540.579,538.918,0.0
51127.0,STARLINK-3370,PAYLOAD,2023-05-18 13:30:51,15.08839559,0.0001091,53.2162,225.5907,97.6848,262.4268,5.5247e-05,5.92e-06,0.0,0 STARLINK-3370,1 51127U 22005Z   23138.56309755  .00000592  00000-0  55247-4 0  9995,2 51127  53.2162 225.5907 0001091  97.6848 262.4268 15.08839559 73823,6917.882,95.438,540.501,538.992,0.0
51127.0,STARLINK-3370,PAYLOAD,2023-05-18 23:03:10,15.0884278,0.0001163,53.2161,223.8068,83.2066,276.9058,3.8986e-05,3.33e-06,0.0,0 STARLINK-3370,1 51127U 22005Z   23138.96053627  .00000333  00000-0  38986-4 0  9997,2 51127  53.2161 223.8068 0001163  83.2066 276.9058 15.08842780 75003,6917.872,95.437,540.541,538.932,0.0
51127.0,STARLINK-3370,PAYLOAD,2023-05-19 11:46:15,15.0884356,0.0001127,53.2162,221.4276,82.7554,277.3566,5.4266e-05,5.76e-06,0.0,0 STARLINK-3370,1 51127U 22005Z   23139.49045474  .00000576  00000-0  54266-4 0  9995,2 51127  53.2162 221.4276 0001127  82.7554 277.3566 15.08843560 73964,6917.87,95.437,540.514,538.955,0.0
51127.0,STARLINK-3370,PAYLOAD,2023-05-20 10:01:39,15.08844775,0.0001177,53.2166,217.264,83.8752,276.2374,4.9307e-05,4.97e-06,0.0,0 STARLINK-3370,1 51127U 22005Z   23140.41781254  .00000497  00000-0  49307-4 0  9994,2 51127  53.2166 217.2640 0001177  83.8752 276.2374 15.08844775 75228,6917.866,95.437,540.545,538.917,0.0
51127.0,STARLINK-3370,PAYLOAD,2023-05-20 11:37:01,15.08854692,0.0001436,53.2168,216.9674,94.3385,265.7771,-3.1284e-05,-7.86e-06,0.0,0 STARLINK-3370,1 51127U 22005Z   23140.48404853 -.00000786  00000-0 -31284-4 0  9996,2 51127  53.2168 216.9674 0001436  94.3385 265.7771 15.08854692 75234,6917.835,95.437,540.694,538.707,0.0
51127.0,STARLINK-3370,PAYLOAD,2023-05-21 08:17:02,15.08844959,0.0001382,53.2168,213.1005,84.8007,275.3142,3.1032e-05,2.06e-06,0.0,0 STARLINK-3370,1 51127U 22005Z   23141.34517007  .00000206  00000-0  31032-4 0  9994,2 51127  53.2168 213.1005 0001382  84.8007 275.3142 15.08844959 75364,6917.865,95.437,540.686,538.774,0.0
51127.0,STARLINK-3370,PAYLOAD,2023-05-21 11:27:48,15.08843421,0.0001308,53.2172,212.5058,88.5944,271.5198,3.0271e-05,1.94e-06,0.0,0 STARLINK-3370,1 51127U 22005Z   23141.47765025  .00000194  00000-0  30271-4 0  9993,2 51127  53.2172 212.5058 0001308  88.5944 271.5198 15.08843421 74269,6917.87,95.437,540.64,538.83,0.0
51127.0,STARLINK-3370,PAYLOAD,2023-05-22 04:57:04,15.08828227,0.0001368,53.2167,209.2359,84.0065,276.1083,4.4133e-05,4.14e-06,0.0,0 STARLINK-3370,1 51127U 22005Z   23142.20630062  .00000414  00000-0  44133-4 0  9994,2 51127  53.2167 209.2359 0001368  84.0065 276.1083 15.08828227 75498,6917.916,95.438,540.728,538.835,0.0
51127.0,STARLINK-3370,PAYLOAD,2023-05-22 11:18:36,15.08829328,0.0001342,53.2168,208.0463,84.6672,275.4473,4.0558e-05,3.57e-06,0.0,0 STARLINK-3370,1 51127U 22005Z   23142.47126112  .00000357  00000-0  40558-4 0  9992,2 51127  53.2168 208.0463 0001342  84.6672 275.4473 15.08829328 74413,6917.913,95.438,540.706,538.85,0.0
51127.0,STARLINK-3370,PAYLOAD,2023-05-23 11:09:23,15.08839268,0.0001478,53.217,203.5873,89.5283,270.5878,-3.1304e-05,-7.86e-06,0.0,0 STARLINK-3370,1 51127U 22005Z   23143.46486007 -.00000786  00000-0 -31304-4 0  9991,2 51127  53.2170 203.5873 0001478  89.5283 270.5878 15.08839268 75682,6917.883,95.438,540.77,538.725,0.0
51127.0,STARLINK-3370,PAYLOAD,2023-05-23 20:41:42,15.08831832,0.0001235,53.2169,201.8032,82.2157,277.8975,6.7446e-05,7.85e-06,0.0,0 STARLINK-3370,1 51127U 22005Z   23143.86230315  .00000785  00000-0  67446-4 0  9997,2 51127  53.2169 201.8032 0001235  82.2157 277.8975 15.08831832 74629,6917.905,95.438,540.625,538.916,0.0
51127.0,STARLINK-3370,PAYLOAD,2023-05-24 14:10:57,15.08839357,0.0001217,53.2164,198.5317,80.9133,279.1997,0.00010322,1.355e-05,0.0,0 STARLINK-3370,1 51127U 22005Z   23144.59093995  .00001355  00000-0  10322-3 0  9993,2 51127  53.2164 198.5317 0001217  80.9133 279.1997 15.08839357 75856,6917.882,95.438,540.589,538.905,0.0
51127.0,STARLINK-3370,PAYLOAD,2023-05-26 02:44:49,15.08837771,0.0001179,53.2157,191.6899,83.0191,277.0935,3.7627e-05,3.11e-06,0.0,0 STARLINK-3370,1 51127U 22005Z   23146.11446496  .00000311  00000-0  37627-4 0  9990,2 51127  53.2157 191.6899 0001179  83.0191 277.0935 15.08837771 76085,6917.887,95.438,540.568,538.937,0.0
51127.0,STARLINK-3370,PAYLOAD,2023-05-26 10:41:45,15.08841705,0.0001154,53.2158,190.2032,83.6079,276.5044,3.1128e-05,2.08e-06,0.0,0 STARLINK-3370,1 51127U 22005Z   23146.44566263  .00000208  00000-0  31128-4 0  9996,2 51127  53.2158 190.2032 0001154  83.6079 276.5044 15.08841705 75013,6917.875,95.437,540.539,538.942,0.0
51127.0,STARLINK-3370,PAYLOAD,2023-05-27 08:57:07,15.08869083,0.0001451,53.2157,186.0411,84.0639,276.0519,0.00026932,4.004e-05,0.0,0 STARLINK-3370,1 51127U 22005Z   23147.37299991  .00004004  00000-0  26932-3 0  9994,2 51127  53.2157 186.0411 0001451  84.0639 276.0519 15.08869083 76273,6917.791,95.436,540.66,538.653,0.0
51127.0,STARLINK-3370,PAYLOAD,2023-05-27 20:04:51,15.08840809,0.0001197,53.2157,183.9598,79.1102,281.0025,3.1046e-05,2.06e-06,0.0,0 STARLINK-3370,1 51127U 22005Z   23147.83670250  .00000206  00000-0  31046-4 0  9999,2 51127  53.2157 183.9598 0001197  79.1102 281.0025 15.08840809 76343,6917.878,95.438,540.571,538.915,0.0
51127.0,STARLINK-3370,PAYLOAD,2023-05-28 05:37:09,15.08841113,0.0001222,53.2155,182.175,88.1533,271.9599,4.0086e-05,3.5e-06,0.0,0 STARLINK-3370,1 51127U 22005Z   23148.23414199  .00000350  00000-0  40086-4 0  9996,2 51127  53.2155 182.1750 0001222  88.1533 271.9599 15.08841113 75284,6917.877,95.437,540.587,538.897,0.0
51127.0,STARLINK-3370,PAYLOAD,2023-05-28 08:47:56,15.08841006,0.0001166,53.2159,181.5806,89.1623,270.9503,3.9006e-05,3.33e-06,0.0,0 STARLINK-3370,1 51127U 22005Z   23148.36662181  .00000333  00000-0  39006-4 0  9997,2 51127  53.2159 181.5806 0001166  89.1623 270.9503 15.08841006 75309,6917.877,95.437,540.549,538.936,0.0
51127.0,STARLINK-3370,PAYLOAD,2023-05-29 08:38:43,15.08839751,0.0001171,53.2157,177.1199,87.493,272.6197,2.9813e-05,1.87e-06,0.0,0 STARLINK-3370,1 51127U 22005Z   23149.36022247  .00000187  00000-0  29813-4 0  9993,2 51127  53.2157 177.1199 0001171  87.4930 272.6197 15.08839751 76573,6917.881,95.438,540.556,538.936,0.0
51127.0,STARLINK-3370,PAYLOAD,2023-05-30 08:29:30,15.08834765,0.0001257,53.2165,172.6616,100.9923,259.1211,-1.381e-05,-5.08e-06,0.0,0 STARLINK-3370,1 51127U 22005Z   23150.35382854 -.00000508  00000-0 -13810-4 0  9996,2 51127  53.2165 172.6616 0001257 100.9923 259.1211 15.08834765 76728,6917.896,95.438,540.631,538.892,0.0
51127.0,STARLINK-3370,PAYLOAD,2023-05-30 18:01:49,15.08834932,0.0001252,53.2164,170.8773,101.8729,258.2403,-6.9193e-06,-3.98e-06,0.0,0 STARLINK-3370,1 51127U 22005Z   23150.75126929 -.00000398  00000-0 -69193-5 0  9992,2 51127  53.2164 170.8773 0001252 101.8729 258.2403 15.08834932 75661,6917.896,95.438,540.627,538.895,0.0
51127.0,STARLINK-3370,PAYLOAD,2023-05-31 08:20:17,15.08837902,0.0001171,53.2159,168.1978,87.519,272.5936,4.4357e-05,4.18e-06,0.0,0 STARLINK-3370,1 51127U 22005Z   23151.34742667  .00000418  00000-0  44357-4 0  9996,2 51127  53.2159 168.1978 0001171  87.5190 272.5936 15.08837902 75754,6917.887,95.438,540.562,538.942,0.0
51127.0,STARLINK-3370,PAYLOAD,2023-05-31 17:52:36,15.08836755,0.0001158,53.2159,166.4136,83.2552,276.8572,5.7111e-05,6.21e-06,0.0,0 STARLINK-3370,1 51127U 22005Z   23151.74486770  .00000621  00000-0  57111-4 0  9998,2 51127  53.2159 166.4136 0001158  83.2552 276.8572 15.08836755 76930,6917.89,95.438,540.556,538.954,0.0
51127.0,STARLINK-3370,PAYLOAD,2023-06-01 09:46:27,15.08838549,0.000117,53.2158,163.4403,84.7768,275.3358,6.0387e-05,6.73e-06,0.0,0 STARLINK-3370,1 51127U 22005Z   23152.40726786  .00000673  00000-0  60387-4 0  9992,2 51127  53.2158 163.4403 0001170  84.7768 275.3358 15.08838549 75918,6917.885,95.438,540.559,538.94,0.0
51127.0,STARLINK-3370,PAYLOAD,2023-06-02 00:04:56,15.08839103,0.0001209,53.2159,160.7648,87.5136,272.5995,1.9652e-05,2.5e-07,0.0,0 STARLINK-3370,1 51127U 22005Z   23153.00342976  .00000025  00000-0  19652-4 0  9994,2 51127  53.2159 160.7648 0001209  87.5136 272.5995 15.08839103 77121,6917.883,95.438,540.585,538.912,0.0
51127.0,STARLINK-3370,PAYLOAD,2023-06-02 08:01:51,15.08839236,0.0001242,53.2162,159.2779,86.7676,273.3458,2.8393e-05,1.64e-06,0.0,0 STARLINK-3370,1 51127U 22005Z   23153.33462955  .00000164  00000-0  28393-4 0  9996,2 51127  53.2162 159.2779 0001242  86.7676 273.3458 15.08839236 76051,6917.883,95.438,540.607,538.889,0.0
